[{"OBJECT_NAME":"STARLINK-31530","OBJECT_ID":"2024-057C","EPOCH":"2026-03-09T22:00:01.999584","MEAN_MOTION":15.40184743,"ECCENTRICITY":0.00128486,"INCLINATION":42.9973,"RA_OF_ASC_NODE":183.7666,"ARG_OF_PERICENTER":5.4945,"MEAN_ANOMALY":123.5141,"EPHEMERIS_TYPE":0,"CLASSIFICATION_TYPE":"U","NORAD_CAT_ID":59322,"ELEMENT_SET_NO":999,"REV_AT_EPOCH":587,"BSTAR":0.0037392027,"MEAN_MOTION_DOT":0.00156829,"MEAN_MOTION_DDOT":0},{"OBJECT_NAME":"FLOCK 4BE-1","OBJECT_ID":"2024-149BC","EPOCH":"2026-03-09T18:15:18.342144","MEAN_MOTION":15.38976196,"ECCENTRICITY":0.0003136,"INCLINATION":97.3814,"RA_OF_ASC_NODE":152.8327,"ARG_OF_PERICENTER":283.1712,"MEAN_ANOMALY":76.9183,"EPHEMERIS_TYPE":0,"CLASSIFICATION_TYPE":"U","NORAD_CAT_ID":60518,"ELEMENT_SET_NO":999,"REV_AT_EPOCH":8706,"BSTAR":0.0005274728,"MEAN_MOTION_DOT":0.000203,"MEAN_MOTION_DDOT":0}]
